{
  "type": "FeatureCollection",
  "features": [
    {
      "type": "Feature",
      "properties": {
        "norad_id": 36695,
        "name": "FENGYUN 1C DEB",
        "group": "fengyun-1c-debris",
        "lat": -49.641699495219804,
        "lon": -14.957851357569536,
        "alt_km": 922.8266844849913,
        "timestamp": "2025-12-20T03:42:47.681915+00:00",
        "meta_object_name": "FENGYUN 1C DEB",
        "meta_object_id": "1999-025DZR",
        "meta_epoch": "2025-12-19T17:58:26.567040",
        "meta_mean_motion": 14.4375753,
        "meta_eccentricity": 0.0257764,
        "meta_inclination": 98.2216,
        "meta_ra_of_asc_node": 334.8541,
        "meta_arg_of_pericenter": 109.141,
        "meta_mean_anomaly": 253.7875,
        "meta_ephemeris_type": 0,
        "meta_classification_type": "U",
        "meta_norad_cat_id": 36695,
        "meta_element_set_no": 999,
        "meta_rev_at_epoch": 89669,
        "meta_bstar": 0.00011487,
        "meta_mean_motion_dot": 5.34e-06,
        "meta_mean_motion_ddot": 0,
        "tle_line1": "1 36695U 99025DZR 25353.74891860  .00000534  00000+0  11487-3 0  9990",
        "tle_line2": "2 36695  98.2216 334.8541 0257764 109.1410 253.7875 14.43757530896698"
      },
      "geometry": {
        "type": "Point",
        "coordinates": [
          -14.957851357569536,
          -49.641699495219804
        ]
      }
    },
    {
      "type": "Feature",
      "properties": {
        "norad_id": 36696,
        "name": "FENGYUN 1C DEB",
        "group": "fengyun-1c-debris",
        "lat": 76.74227807395474,
        "lon": -38.72058193826592,
        "alt_km": 764.5367617114689,
        "timestamp": "2025-12-20T03:42:47.681925+00:00",
        "meta_object_name": "FENGYUN 1C DEB",
        "meta_object_id": "1999-025DZS",
        "meta_epoch": "2025-12-12T23:29:27.613248",
        "meta_mean_motion": 14.39206881,
        "meta_eccentricity": 0.00228959,
        "meta_inclination": 98.9916,
        "meta_ra_of_asc_node": 355.9822,
        "meta_arg_of_pericenter": 328.4138,
        "meta_mean_anomaly": 31.5673,
        "meta_ephemeris_type": 0,
        "meta_classification_type": "U",
        "meta_norad_cat_id": 36696,
        "meta_element_set_no": 999,
        "meta_rev_at_epoch": 64399,
        "meta_bstar": 0.0029501232,
        "meta_mean_motion_dot": 9.135e-05,
        "meta_mean_motion_ddot": 0,
        "tle_line1": "1 36696U 99025DZS 25346.97879182  .00009135  00000+0  29501-2 0  9992",
        "tle_line2": "2 36696  98.9916 355.9822 0022895 328.4138  31.5673 14.39206881643991"
      },
      "geometry": {
        "type": "Point",
        "coordinates": [
          -38.72058193826592,
          76.74227807395474
        ]
      }
    },
    {
      "type": "Feature",
      "properties": {
        "norad_id": 36699,
        "name": "FENGYUN 1C DEB",
        "group": "fengyun-1c-debris",
        "lat": 72.79582041572749,
        "lon": -40.6378471336839,
        "alt_km": 746.8720656535115,
        "timestamp": "2025-12-20T03:42:47.681935+00:00",
        "meta_object_name": "FENGYUN 1C DEB",
        "meta_object_id": "1999-025DZV",
        "meta_epoch": "2025-12-18T19:19:49.130400",
        "meta_mean_motion": 14.24300453,
        "meta_eccentricity": 0.00948184,
        "meta_inclination": 98.559,
        "meta_ra_of_asc_node": 347.151,
        "meta_arg_of_pericenter": 112.6201,
        "meta_mean_anomaly": 248.5042,
        "meta_ephemeris_type": 0,
        "meta_classification_type": "U",
        "meta_norad_cat_id": 36699,
        "meta_element_set_no": 999,
        "meta_rev_at_epoch": 73413,
        "meta_bstar": 0.00018594934,
        "meta_mean_motion_dot": 4.08e-06,
        "meta_mean_motion_ddot": 0,
        "tle_line1": "1 36699U 99025DZV 25352.80542975  .00000408  00000+0  18595-3 0  9997",
        "tle_line2": "2 36699  98.5590 347.1510 0094818 112.6201 248.5042 14.24300453734134"
      },
      "geometry": {
        "type": "Point",
        "coordinates": [
          -40.6378471336839,
          72.79582041572749
        ]
      }
    },
    {
      "type": "Feature",
      "properties": {
        "norad_id": 36701,
        "name": "FENGYUN 1C DEB",
        "group": "fengyun-1c-debris",
        "lat": 59.99187389348316,
        "lon": -72.17106152486288,
        "alt_km": 1178.5730752484924,
        "timestamp": "2025-12-20T03:42:47.681946+00:00",
        "meta_object_name": "FENGYUN 1C DEB",
        "meta_object_id": "1999-025DZX",
        "meta_epoch": "2025-12-17T03:36:27.439776",
        "meta_mean_motion": 13.71349788,
        "meta_eccentricity": 0.02590644,
        "meta_inclination": 102.7448,
        "meta_ra_of_asc_node": 306.923,
        "meta_arg_of_pericenter": 243.4462,
        "meta_mean_anomaly": 113.9905,
        "meta_ephemeris_type": 0,
        "meta_classification_type": "U",
        "meta_norad_cat_id": 36701,
        "meta_element_set_no": 999,
        "meta_rev_at_epoch": 61199,
        "meta_bstar": 0.0015992707,
        "meta_mean_motion_dot": 1.752e-05,
        "meta_mean_motion_ddot": 0,
        "tle_line1": "1 36701U 99025DZX 25351.15031759  .00001752  00000+0  15993-2 0  9992",
        "tle_line2": "2 36701 102.7448 306.9230 0259064 243.4462 113.9905 13.71349788611994"
      },
      "geometry": {
        "type": "Point",
        "coordinates": [
          -72.17106152486288,
          59.99187389348316
        ]
      }
    },
    {
      "type": "Feature",
      "properties": {
        "norad_id": 36707,
        "name": "FENGYUN 1C DEB",
        "group": "fengyun-1c-debris",
        "lat": 42.24408106862608,
        "lon": -131.80433571870006,
        "alt_km": 801.8578273076546,
        "timestamp": "2025-12-20T03:42:47.681956+00:00",
        "meta_object_name": "FENGYUN 1C DEB",
        "meta_object_id": "1999-025EAD",
        "meta_epoch": "2025-12-18T08:42:57.647808",
        "meta_mean_motion": 14.17327397,
        "meta_eccentricity": 0.00497364,
        "meta_inclination": 98.7521,
        "meta_ra_of_asc_node": 38.3898,
        "meta_arg_of_pericenter": 106.0397,
        "meta_mean_anomaly": 254.6263,
        "meta_ephemeris_type": 0,
        "meta_classification_type": "U",
        "meta_norad_cat_id": 36707,
        "meta_element_set_no": 999,
        "meta_rev_at_epoch": 64159,
        "meta_bstar": 0.00068027928,
        "meta_mean_motion_dot": 1.349e-05,
        "meta_mean_motion_ddot": 0,
        "tle_line1": "1 36707U 99025EAD 25352.36316722  .00001349  00000+0  68028-3 0  9998",
        "tle_line2": "2 36707  98.7521  38.3898 0049736 106.0397 254.6263 14.17327397641598"
      },
      "geometry": {
        "type": "Point",
        "coordinates": [
          -131.80433571870006,
          42.24408106862608
        ]
      }
    },
    {
      "type": "Feature",
      "properties": {
        "norad_id": 36710,
        "name": "FENGYUN 1C DEB",
        "group": "fengyun-1c-debris",
        "lat": -13.768307293333171,
        "lon": -130.8341140784601,
        "alt_km": 690.6767707759727,
        "timestamp": "2025-12-20T03:42:47.681966+00:00",
        "meta_object_name": "FENGYUN 1C DEB",
        "meta_object_id": "1999-025EAG",
        "meta_epoch": "2025-12-15T10:11:57.749280",
        "meta_mean_motion": 14.49882943,
        "meta_eccentricity": 0.00679739,
        "meta_inclination": 98.3812,
        "meta_ra_of_asc_node": 46.5328,
        "meta_arg_of_pericenter": 173.535,
        "meta_mean_anomaly": 186.6737,
        "meta_ephemeris_type": 0,
        "meta_classification_type": "U",
        "meta_norad_cat_id": 36710,
        "meta_element_set_no": 999,
        "meta_rev_at_epoch": 64992,
        "meta_bstar": 0.00098752348,
        "meta_mean_motion_dot": 3.884e-05,
        "meta_mean_motion_ddot": 0,
        "tle_line1": "1 36710U 99025EAG 25349.42497395  .00003884  00000+0  98752-3 0  9994",
        "tle_line2": "2 36710  98.3812  46.5328 0067973 173.5350 186.6737 14.49882943649924"
      },
      "geometry": {
        "type": "Point",
        "coordinates": [
          -130.8341140784601,
          -13.768307293333171
        ]
      }
    },
    {
      "type": "Feature",
      "properties": {
        "norad_id": 36711,
        "name": "FENGYUN 1C DEB",
        "group": "fengyun-1c-debris",
        "lat": -52.784739893809636,
        "lon": -179.158734290308,
        "alt_km": 707.3899006622751,
        "timestamp": "2025-12-20T03:42:47.681977+00:00",
        "meta_object_name": "FENGYUN 1C DEB",
        "meta_object_id": "1999-025EAH",
        "meta_epoch": "2025-12-15T19:25:24.600864",
        "meta_mean_motion": 14.42474443,
        "meta_eccentricity": 0.01001739,
        "meta_inclination": 100.8044,
        "meta_ra_of_asc_node": 9.912,
        "meta_arg_of_pericenter": 199.8566,
        "meta_mean_anomaly": 159.8704,
        "meta_ephemeris_type": 0,
        "meta_classification_type": "U",
        "meta_norad_cat_id": 36711,
        "meta_element_set_no": 999,
        "meta_rev_at_epoch": 64355,
        "meta_bstar": 0.0014307525,
        "meta_mean_motion_dot": 4.969e-05,
        "meta_mean_motion_ddot": 0,
        "tle_line1": "1 36711U 99025EAH 25349.80931251  .00004969  00000+0  14308-2 0  9990",
        "tle_line2": "2 36711 100.8044   9.9120 0100173 199.8566 159.8704 14.42474443643558"
      },
      "geometry": {
        "type": "Point",
        "coordinates": [
          -179.158734290308,
          -52.784739893809636
        ]
      }
    }
  ]
}